<?xml version="1.0" encoding="UTF-8"?>
<!-- 반포 잠수교 왕복 — 세빛섬에서 잠수교를 건너 북단에서 되돌아오는 야경 코스. 경로는 OpenStreetMap 보행로 기반(ODbL) 자체 제작 -->
<gpx version="1.1" creator="RunWrap" xmlns="http://www.topografix.com/GPX/1/1">
  <trk><name>반포 잠수교 왕복</name><trkseg>
    <trkpt lat="37.51202" lon="126.99556"/>
    <trkpt lat="37.51184" lon="126.99532"/>
    <trkpt lat="37.51169" lon="126.99527"/>
    <trkpt lat="37.51109" lon="126.99555"/>
    <trkpt lat="37.51094" lon="126.99565"/>
    <trkpt lat="37.51071" lon="126.99565"/>
    <trkpt lat="37.51035" lon="126.99580"/>
    <trkpt lat="37.51045" lon="126.99606"/>
    <trkpt lat="37.51050" lon="126.99635"/>
    <trkpt lat="37.51048" lon="126.99676"/>
    <trkpt lat="37.51044" lon="126.99711"/>
    <trkpt lat="37.51044" lon="126.99731"/>
    <trkpt lat="37.51046" lon="126.99751"/>
    <trkpt lat="37.51053" lon="126.99768"/>
    <trkpt lat="37.51065" lon="126.99793"/>
    <trkpt lat="37.51052" lon="126.99804"/>
    <trkpt lat="37.51049" lon="126.99823"/>
    <trkpt lat="37.51052" lon="126.99842"/>
    <trkpt lat="37.50923" lon="126.99906"/>
    <trkpt lat="37.50885" lon="126.99924"/>
    <trkpt lat="37.50866" lon="126.99933"/>
    <trkpt lat="37.50830" lon="126.99949"/>
    <trkpt lat="37.50903" lon="126.99902"/>
    <trkpt lat="37.50975" lon="126.99874"/>
    <trkpt lat="37.51003" lon="126.99859"/>
    <trkpt lat="37.51016" lon="126.99853"/>
    <trkpt lat="37.51072" lon="126.99828"/>
    <trkpt lat="37.51223" lon="126.99757"/>
    <trkpt lat="37.51361" lon="126.99689"/>
    <trkpt lat="37.51488" lon="126.99627"/>
    <trkpt lat="37.51533" lon="126.99605"/>
    <trkpt lat="37.51653" lon="126.99548"/>
    <trkpt lat="37.51848" lon="126.99454"/>
    <trkpt lat="37.51902" lon="126.99431"/>
    <trkpt lat="37.51937" lon="126.99418"/>
    <trkpt lat="37.51985" lon="126.99404"/>
    <trkpt lat="37.52276" lon="126.99352"/>
    <trkpt lat="37.52289" lon="126.99348"/>
    <trkpt lat="37.52325" lon="126.99337"/>
    <trkpt lat="37.52349" lon="126.99328"/>
    <trkpt lat="37.52325" lon="126.99337"/>
    <trkpt lat="37.52289" lon="126.99348"/>
    <trkpt lat="37.52276" lon="126.99352"/>
    <trkpt lat="37.51985" lon="126.99404"/>
    <trkpt lat="37.51937" lon="126.99418"/>
    <trkpt lat="37.51902" lon="126.99431"/>
    <trkpt lat="37.51848" lon="126.99454"/>
    <trkpt lat="37.51653" lon="126.99548"/>
    <trkpt lat="37.51533" lon="126.99605"/>
    <trkpt lat="37.51492" lon="126.99624"/>
    <trkpt lat="37.51361" lon="126.99689"/>
    <trkpt lat="37.51223" lon="126.99757"/>
    <trkpt lat="37.51072" lon="126.99828"/>
    <trkpt lat="37.51016" lon="126.99853"/>
    <trkpt lat="37.51003" lon="126.99859"/>
    <trkpt lat="37.50975" lon="126.99874"/>
    <trkpt lat="37.50914" lon="126.99899"/>
    <trkpt lat="37.50826" lon="126.99940"/>
    <trkpt lat="37.50866" lon="126.99933"/>
    <trkpt lat="37.50885" lon="126.99924"/>
    <trkpt lat="37.50923" lon="126.99906"/>
    <trkpt lat="37.51052" lon="126.99842"/>
    <trkpt lat="37.51053" lon="126.99825"/>
    <trkpt lat="37.51048" lon="126.99807"/>
    <trkpt lat="37.51063" lon="126.99795"/>
    <trkpt lat="37.51053" lon="126.99768"/>
    <trkpt lat="37.51046" lon="126.99751"/>
    <trkpt lat="37.51044" lon="126.99731"/>
    <trkpt lat="37.51044" lon="126.99711"/>
    <trkpt lat="37.51047" lon="126.99686"/>
    <trkpt lat="37.51050" lon="126.99649"/>
    <trkpt lat="37.51048" lon="126.99619"/>
    <trkpt lat="37.51040" lon="126.99594"/>
    <trkpt lat="37.51071" lon="126.99565"/>
    <trkpt lat="37.51094" lon="126.99565"/>
    <trkpt lat="37.51109" lon="126.99555"/>
    <trkpt lat="37.51161" lon="126.99522"/>
    <trkpt lat="37.51177" lon="126.99529"/>
    <trkpt lat="37.51192" lon="126.99533"/>
    <trkpt lat="37.51202" lon="126.99556"/>
  </trkseg></trk>
</gpx>
