<?xml version="1.0" encoding="UTF-8"?>
<!-- 청계천 종주 — 청계광장에서 물길을 따라 고산자교까지 내려가는 편도 코스. 경로는 OpenStreetMap 보행로 기반(ODbL) 자체 제작 -->
<gpx version="1.1" creator="RunWrap" xmlns="http://www.topografix.com/GPX/1/1">
  <trk><name>청계천 종주</name><trkseg>
    <trkpt lat="37.56900" lon="126.97830"/>
    <trkpt lat="37.56894" lon="126.97914"/>
    <trkpt lat="37.56902" lon="126.97929"/>
    <trkpt lat="37.56901" lon="126.97953"/>
    <trkpt lat="37.56897" lon="126.98005"/>
    <trkpt lat="37.56884" lon="126.98183"/>
    <trkpt lat="37.56881" lon="126.98240"/>
    <trkpt lat="37.56879" lon="126.98293"/>
    <trkpt lat="37.56876" lon="126.98318"/>
    <trkpt lat="37.56873" lon="126.98342"/>
    <trkpt lat="37.56844" lon="126.98488"/>
    <trkpt lat="37.56839" lon="126.98520"/>
    <trkpt lat="37.56825" lon="126.98674"/>
    <trkpt lat="37.56820" lon="126.98719"/>
    <trkpt lat="37.56819" lon="126.98743"/>
    <trkpt lat="37.56819" lon="126.98762"/>
    <trkpt lat="37.56818" lon="126.98788"/>
    <trkpt lat="37.56817" lon="126.98847"/>
    <trkpt lat="37.56817" lon="126.98864"/>
    <trkpt lat="37.56819" lon="126.98939"/>
    <trkpt lat="37.56819" lon="126.98959"/>
    <trkpt lat="37.56825" lon="126.99004"/>
    <trkpt lat="37.56824" lon="126.99027"/>
    <trkpt lat="37.56825" lon="126.99091"/>
    <trkpt lat="37.56841" lon="126.99091"/>
    <trkpt lat="37.56846" lon="126.99134"/>
    <trkpt lat="37.56882" lon="126.99132"/>
    <trkpt lat="37.56890" lon="126.99160"/>
    <trkpt lat="37.56906" lon="126.99198"/>
    <trkpt lat="37.56911" lon="126.99227"/>
    <trkpt lat="37.56928" lon="126.99225"/>
    <trkpt lat="37.56932" lon="126.99265"/>
    <trkpt lat="37.56929" lon="126.99296"/>
    <trkpt lat="37.56949" lon="126.99307"/>
    <trkpt lat="37.56952" lon="126.99335"/>
    <trkpt lat="37.56931" lon="126.99336"/>
    <trkpt lat="37.56930" lon="126.99380"/>
    <trkpt lat="37.56930" lon="126.99404"/>
    <trkpt lat="37.56929" lon="126.99437"/>
    <trkpt lat="37.56928" lon="126.99459"/>
    <trkpt lat="37.56925" lon="126.99503"/>
    <trkpt lat="37.56873" lon="126.99508"/>
    <trkpt lat="37.56856" lon="126.99508"/>
    <trkpt lat="37.56861" lon="126.99558"/>
    <trkpt lat="37.56862" lon="126.99576"/>
    <trkpt lat="37.56864" lon="126.99596"/>
    <trkpt lat="37.56866" lon="126.99620"/>
    <trkpt lat="37.56867" lon="126.99637"/>
    <trkpt lat="37.56869" lon="126.99656"/>
    <trkpt lat="37.56871" lon="126.99675"/>
    <trkpt lat="37.56873" lon="126.99693"/>
    <trkpt lat="37.56876" lon="126.99712"/>
    <trkpt lat="37.56884" lon="126.99777"/>
    <trkpt lat="37.56888" lon="126.99805"/>
    <trkpt lat="37.56929" lon="126.99984"/>
    <trkpt lat="37.56933" lon="127.00002"/>
    <trkpt lat="37.56950" lon="127.00092"/>
    <trkpt lat="37.56961" lon="127.00153"/>
    <trkpt lat="37.56969" lon="127.00181"/>
    <trkpt lat="37.56971" lon="127.00199"/>
    <trkpt lat="37.56971" lon="127.00225"/>
    <trkpt lat="37.56972" lon="127.00314"/>
    <trkpt lat="37.56973" lon="127.00386"/>
    <trkpt lat="37.56973" lon="127.00449"/>
    <trkpt lat="37.56972" lon="127.00626"/>
    <trkpt lat="37.56972" lon="127.00651"/>
    <trkpt lat="37.56980" lon="127.00829"/>
    <trkpt lat="37.56985" lon="127.00920"/>
    <trkpt lat="37.56995" lon="127.00936"/>
    <trkpt lat="37.57006" lon="127.00948"/>
    <trkpt lat="37.57022" lon="127.00956"/>
    <trkpt lat="37.56996" lon="127.00960"/>
    <trkpt lat="37.56996" lon="127.00985"/>
    <trkpt lat="37.56987" lon="127.01000"/>
    <trkpt lat="37.56981" lon="127.01018"/>
    <trkpt lat="37.56981" lon="127.01037"/>
    <trkpt lat="37.56981" lon="127.01086"/>
    <trkpt lat="37.56982" lon="127.01114"/>
    <trkpt lat="37.56982" lon="127.01142"/>
    <trkpt lat="37.56982" lon="127.01189"/>
    <trkpt lat="37.56982" lon="127.01228"/>
    <trkpt lat="37.56984" lon="127.01278"/>
    <trkpt lat="37.56985" lon="127.01374"/>
    <trkpt lat="37.56985" lon="127.01534"/>
    <trkpt lat="37.56988" lon="127.01578"/>
    <trkpt lat="37.56991" lon="127.01610"/>
    <trkpt lat="37.57009" lon="127.01676"/>
    <trkpt lat="37.57027" lon="127.01721"/>
    <trkpt lat="37.57040" lon="127.01748"/>
    <trkpt lat="37.57089" lon="127.01840"/>
    <trkpt lat="37.57145" lon="127.01949"/>
    <trkpt lat="37.57171" lon="127.02007"/>
    <trkpt lat="37.57185" lon="127.02059"/>
    <trkpt lat="37.57203" lon="127.02166"/>
    <trkpt lat="37.57201" lon="127.02239"/>
    <trkpt lat="37.57191" lon="127.02309"/>
    <trkpt lat="37.57185" lon="127.02335"/>
    <trkpt lat="37.57179" lon="127.02361"/>
    <trkpt lat="37.57170" lon="127.02393"/>
    <trkpt lat="37.57155" lon="127.02442"/>
    <trkpt lat="37.57131" lon="127.02525"/>
    <trkpt lat="37.57108" lon="127.02617"/>
    <trkpt lat="37.57083" lon="127.02707"/>
    <trkpt lat="37.57075" lon="127.02739"/>
    <trkpt lat="37.57083" lon="127.02758"/>
    <trkpt lat="37.57067" lon="127.02796"/>
    <trkpt lat="37.57102" lon="127.02802"/>
    <trkpt lat="37.57091" lon="127.02826"/>
    <trkpt lat="37.57070" lon="127.02917"/>
    <trkpt lat="37.57059" lon="127.02962"/>
    <trkpt lat="37.57051" lon="127.02999"/>
    <trkpt lat="37.57042" lon="127.03036"/>
    <trkpt lat="37.57045" lon="127.03116"/>
    <trkpt lat="37.57048" lon="127.03156"/>
    <trkpt lat="37.57055" lon="127.03185"/>
    <trkpt lat="37.57069" lon="127.03220"/>
    <trkpt lat="37.57090" lon="127.03261"/>
    <trkpt lat="37.57108" lon="127.03286"/>
    <trkpt lat="37.57092" lon="127.03305"/>
    <trkpt lat="37.57102" lon="127.03329"/>
    <trkpt lat="37.57087" lon="127.03341"/>
    <trkpt lat="37.57073" lon="127.03356"/>
    <trkpt lat="37.57064" lon="127.03371"/>
    <trkpt lat="37.57072" lon="127.03394"/>
    <trkpt lat="37.57092" lon="127.03422"/>
    <trkpt lat="37.57111" lon="127.03451"/>
    <trkpt lat="37.57133" lon="127.03489"/>
    <trkpt lat="37.57144" lon="127.03507"/>
    <trkpt lat="37.57154" lon="127.03529"/>
    <trkpt lat="37.57161" lon="127.03546"/>
    <trkpt lat="37.57137" lon="127.03559"/>
    <trkpt lat="37.57143" lon="127.03577"/>
    <trkpt lat="37.57149" lon="127.03602"/>
    <trkpt lat="37.57123" lon="127.03611"/>
    <trkpt lat="37.57131" lon="127.03678"/>
  </trkseg></trk>
</gpx>
