<?xml version="1.0" encoding="UTF-8"?>
<!-- 남산 북측순환로 왕복 — 국립극장에서 북측순환로(남산공원길)를 따라 케이블카 방면까지 다녀오는 오르막 코스. 경로는 OpenStreetMap 보행로 기반(ODbL) 자체 제작 -->
<gpx version="1.1" creator="RunWrap" xmlns="http://www.topografix.com/GPX/1/1">
  <trk><name>남산 북측순환로 왕복</name><trkseg>
    <trkpt lat="37.55078" lon="126.99838"/>
    <trkpt lat="37.55079" lon="126.99871"/>
    <trkpt lat="37.55089" lon="126.99847"/>
    <trkpt lat="37.55100" lon="126.99815"/>
    <trkpt lat="37.55147" lon="126.99773"/>
    <trkpt lat="37.55159" lon="126.99757"/>
    <trkpt lat="37.55224" lon="126.99787"/>
    <trkpt lat="37.55306" lon="126.99831"/>
    <trkpt lat="37.55323" lon="126.99838"/>
    <trkpt lat="37.55347" lon="126.99841"/>
    <trkpt lat="37.55403" lon="126.99849"/>
    <trkpt lat="37.55347" lon="126.99841"/>
    <trkpt lat="37.55323" lon="126.99838"/>
    <trkpt lat="37.55306" lon="126.99831"/>
    <trkpt lat="37.55224" lon="126.99787"/>
    <trkpt lat="37.55159" lon="126.99757"/>
    <trkpt lat="37.55130" lon="126.99742"/>
    <trkpt lat="37.55167" lon="126.99714"/>
    <trkpt lat="37.55197" lon="126.99697"/>
    <trkpt lat="37.55211" lon="126.99683"/>
    <trkpt lat="37.55179" lon="126.99630"/>
    <trkpt lat="37.55174" lon="126.99612"/>
    <trkpt lat="37.55177" lon="126.99591"/>
    <trkpt lat="37.55189" lon="126.99571"/>
    <trkpt lat="37.55211" lon="126.99545"/>
    <trkpt lat="37.55226" lon="126.99525"/>
    <trkpt lat="37.55225" lon="126.99478"/>
    <trkpt lat="37.55230" lon="126.99460"/>
    <trkpt lat="37.55255" lon="126.99452"/>
    <trkpt lat="37.55295" lon="126.99464"/>
    <trkpt lat="37.55311" lon="126.99465"/>
    <trkpt lat="37.55338" lon="126.99459"/>
    <trkpt lat="37.55348" lon="126.99444"/>
    <trkpt lat="37.55351" lon="126.99421"/>
    <trkpt lat="37.55359" lon="126.99407"/>
    <trkpt lat="37.55374" lon="126.99399"/>
    <trkpt lat="37.55390" lon="126.99401"/>
    <trkpt lat="37.55413" lon="126.99408"/>
    <trkpt lat="37.55436" lon="126.99399"/>
    <trkpt lat="37.55451" lon="126.99369"/>
    <trkpt lat="37.55455" lon="126.99341"/>
    <trkpt lat="37.55459" lon="126.99309"/>
    <trkpt lat="37.55519" lon="126.99172"/>
    <trkpt lat="37.55527" lon="126.99152"/>
    <trkpt lat="37.55542" lon="126.99142"/>
    <trkpt lat="37.55596" lon="126.99169"/>
    <trkpt lat="37.55641" lon="126.99195"/>
    <trkpt lat="37.55658" lon="126.99197"/>
    <trkpt lat="37.55677" lon="126.99194"/>
    <trkpt lat="37.55689" lon="126.99182"/>
    <trkpt lat="37.55703" lon="126.99151"/>
    <trkpt lat="37.55698" lon="126.99123"/>
    <trkpt lat="37.55689" lon="126.99109"/>
    <trkpt lat="37.55673" lon="126.99086"/>
    <trkpt lat="37.55677" lon="126.99058"/>
    <trkpt lat="37.55688" lon="126.99035"/>
    <trkpt lat="37.55689" lon="126.99015"/>
    <trkpt lat="37.55675" lon="126.98985"/>
    <trkpt lat="37.55657" lon="126.98965"/>
    <trkpt lat="37.55652" lon="126.98948"/>
    <trkpt lat="37.55652" lon="126.98921"/>
    <trkpt lat="37.55642" lon="126.98891"/>
    <trkpt lat="37.55537" lon="126.98831"/>
    <trkpt lat="37.55521" lon="126.98816"/>
    <trkpt lat="37.55521" lon="126.98792"/>
    <trkpt lat="37.55565" lon="126.98771"/>
    <trkpt lat="37.55579" lon="126.98762"/>
    <trkpt lat="37.55587" lon="126.98740"/>
    <trkpt lat="37.55588" lon="126.98701"/>
    <trkpt lat="37.55577" lon="126.98672"/>
    <trkpt lat="37.55564" lon="126.98663"/>
    <trkpt lat="37.55533" lon="126.98663"/>
    <trkpt lat="37.55519" lon="126.98644"/>
    <trkpt lat="37.55526" lon="126.98622"/>
    <trkpt lat="37.55559" lon="126.98596"/>
    <trkpt lat="37.55574" lon="126.98574"/>
    <trkpt lat="37.55559" lon="126.98596"/>
    <trkpt lat="37.55526" lon="126.98622"/>
    <trkpt lat="37.55519" lon="126.98644"/>
    <trkpt lat="37.55533" lon="126.98663"/>
    <trkpt lat="37.55564" lon="126.98663"/>
    <trkpt lat="37.55577" lon="126.98672"/>
    <trkpt lat="37.55588" lon="126.98701"/>
    <trkpt lat="37.55587" lon="126.98740"/>
    <trkpt lat="37.55579" lon="126.98762"/>
    <trkpt lat="37.55565" lon="126.98771"/>
    <trkpt lat="37.55527" lon="126.98782"/>
    <trkpt lat="37.55518" lon="126.98804"/>
    <trkpt lat="37.55526" lon="126.98823"/>
    <trkpt lat="37.55632" lon="126.98885"/>
    <trkpt lat="37.55650" lon="126.98907"/>
    <trkpt lat="37.55652" lon="126.98948"/>
    <trkpt lat="37.55657" lon="126.98965"/>
    <trkpt lat="37.55675" lon="126.98985"/>
    <trkpt lat="37.55683" lon="126.99000"/>
    <trkpt lat="37.55690" lon="126.99025"/>
    <trkpt lat="37.55677" lon="126.99058"/>
    <trkpt lat="37.55672" lon="126.99074"/>
    <trkpt lat="37.55689" lon="126.99109"/>
    <trkpt lat="37.55698" lon="126.99123"/>
    <trkpt lat="37.55703" lon="126.99151"/>
    <trkpt lat="37.55689" lon="126.99182"/>
    <trkpt lat="37.55677" lon="126.99194"/>
    <trkpt lat="37.55658" lon="126.99197"/>
    <trkpt lat="37.55641" lon="126.99195"/>
    <trkpt lat="37.55601" lon="126.99171"/>
    <trkpt lat="37.55555" lon="126.99144"/>
    <trkpt lat="37.55527" lon="126.99152"/>
    <trkpt lat="37.55519" lon="126.99172"/>
    <trkpt lat="37.55459" lon="126.99309"/>
    <trkpt lat="37.55455" lon="126.99341"/>
    <trkpt lat="37.55451" lon="126.99369"/>
    <trkpt lat="37.55445" lon="126.99387"/>
    <trkpt lat="37.55425" lon="126.99408"/>
    <trkpt lat="37.55390" lon="126.99401"/>
    <trkpt lat="37.55374" lon="126.99399"/>
    <trkpt lat="37.55359" lon="126.99407"/>
    <trkpt lat="37.55351" lon="126.99421"/>
    <trkpt lat="37.55348" lon="126.99444"/>
    <trkpt lat="37.55338" lon="126.99459"/>
    <trkpt lat="37.55311" lon="126.99465"/>
    <trkpt lat="37.55295" lon="126.99464"/>
    <trkpt lat="37.55255" lon="126.99452"/>
    <trkpt lat="37.55241" lon="126.99452"/>
    <trkpt lat="37.55225" lon="126.99478"/>
    <trkpt lat="37.55228" lon="126.99509"/>
    <trkpt lat="37.55211" lon="126.99545"/>
    <trkpt lat="37.55189" lon="126.99571"/>
    <trkpt lat="37.55177" lon="126.99591"/>
    <trkpt lat="37.55174" lon="126.99612"/>
    <trkpt lat="37.55179" lon="126.99630"/>
    <trkpt lat="37.55211" lon="126.99683"/>
    <trkpt lat="37.55197" lon="126.99697"/>
    <trkpt lat="37.55167" lon="126.99714"/>
    <trkpt lat="37.55137" lon="126.99728"/>
    <trkpt lat="37.55159" lon="126.99757"/>
    <trkpt lat="37.55224" lon="126.99787"/>
    <trkpt lat="37.55306" lon="126.99831"/>
    <trkpt lat="37.55323" lon="126.99838"/>
    <trkpt lat="37.55347" lon="126.99841"/>
    <trkpt lat="37.55403" lon="126.99849"/>
    <trkpt lat="37.55347" lon="126.99841"/>
    <trkpt lat="37.55323" lon="126.99838"/>
    <trkpt lat="37.55306" lon="126.99831"/>
    <trkpt lat="37.55224" lon="126.99787"/>
    <trkpt lat="37.55159" lon="126.99757"/>
    <trkpt lat="37.55147" lon="126.99773"/>
    <trkpt lat="37.55106" lon="126.99801"/>
    <trkpt lat="37.55089" lon="126.99847"/>
    <trkpt lat="37.55079" lon="126.99871"/>
    <trkpt lat="37.55078" lon="126.99838"/>
  </trkseg></trk>
</gpx>
