<?xml version="1.0" encoding="UTF-8"?>
<!-- 올림픽공원 한 바퀴 — 평화의문에서 몽촌토성 바깥 산책로를 도는 순환 코스. 경로는 OpenStreetMap 보행로 기반(ODbL) 자체 제작 -->
<gpx version="1.1" creator="RunWrap" xmlns="http://www.topografix.com/GPX/1/1">
  <trk><name>올림픽공원 한 바퀴</name><trkseg>
    <trkpt lat="37.51949" lon="127.11476"/>
    <trkpt lat="37.51978" lon="127.11487"/>
    <trkpt lat="37.51955" lon="127.11552"/>
    <trkpt lat="37.51970" lon="127.11603"/>
    <trkpt lat="37.51995" lon="127.11619"/>
    <trkpt lat="37.52023" lon="127.11637"/>
    <trkpt lat="37.52126" lon="127.11716"/>
    <trkpt lat="37.52134" lon="127.11779"/>
    <trkpt lat="37.52164" lon="127.11778"/>
    <trkpt lat="37.52197" lon="127.11788"/>
    <trkpt lat="37.52230" lon="127.11792"/>
    <trkpt lat="37.52273" lon="127.11815"/>
    <trkpt lat="37.52302" lon="127.11856"/>
    <trkpt lat="37.52327" lon="127.11889"/>
    <trkpt lat="37.52355" lon="127.11949"/>
    <trkpt lat="37.52374" lon="127.11979"/>
    <trkpt lat="37.52394" lon="127.12000"/>
    <trkpt lat="37.52414" lon="127.12017"/>
    <trkpt lat="37.52432" lon="127.12024"/>
    <trkpt lat="37.52446" lon="127.12029"/>
    <trkpt lat="37.52459" lon="127.12041"/>
    <trkpt lat="37.52473" lon="127.12065"/>
    <trkpt lat="37.52481" lon="127.12081"/>
    <trkpt lat="37.52484" lon="127.12115"/>
    <trkpt lat="37.52480" lon="127.12134"/>
    <trkpt lat="37.52470" lon="127.12150"/>
    <trkpt lat="37.52462" lon="127.12177"/>
    <trkpt lat="37.52463" lon="127.12198"/>
    <trkpt lat="37.52468" lon="127.12222"/>
    <trkpt lat="37.52468" lon="127.12253"/>
    <trkpt lat="37.52462" lon="127.12269"/>
    <trkpt lat="37.52456" lon="127.12284"/>
    <trkpt lat="37.52456" lon="127.12302"/>
    <trkpt lat="37.52456" lon="127.12360"/>
    <trkpt lat="37.52461" lon="127.12388"/>
    <trkpt lat="37.52463" lon="127.12410"/>
    <trkpt lat="37.52454" lon="127.12434"/>
    <trkpt lat="37.52441" lon="127.12462"/>
    <trkpt lat="37.52432" lon="127.12480"/>
    <trkpt lat="37.52422" lon="127.12510"/>
    <trkpt lat="37.52401" lon="127.12555"/>
    <trkpt lat="37.52392" lon="127.12573"/>
    <trkpt lat="37.52383" lon="127.12588"/>
    <trkpt lat="37.52369" lon="127.12608"/>
    <trkpt lat="37.52354" lon="127.12624"/>
    <trkpt lat="37.52340" lon="127.12640"/>
    <trkpt lat="37.52325" lon="127.12659"/>
    <trkpt lat="37.52304" lon="127.12662"/>
    <trkpt lat="37.52286" lon="127.12648"/>
    <trkpt lat="37.52255" lon="127.12659"/>
    <trkpt lat="37.52253" lon="127.12687"/>
    <trkpt lat="37.52259" lon="127.12703"/>
    <trkpt lat="37.52289" lon="127.12730"/>
    <trkpt lat="37.52264" lon="127.12727"/>
    <trkpt lat="37.52238" lon="127.12727"/>
    <trkpt lat="37.52204" lon="127.12732"/>
    <trkpt lat="37.52179" lon="127.12745"/>
    <trkpt lat="37.52155" lon="127.12762"/>
    <trkpt lat="37.52108" lon="127.12797"/>
    <trkpt lat="37.52074" lon="127.12815"/>
    <trkpt lat="37.52045" lon="127.12828"/>
    <trkpt lat="37.52052" lon="127.12849"/>
    <trkpt lat="37.52003" lon="127.12872"/>
    <trkpt lat="37.51972" lon="127.12881"/>
    <trkpt lat="37.51929" lon="127.12890"/>
    <trkpt lat="37.51896" lon="127.12896"/>
    <trkpt lat="37.51869" lon="127.12900"/>
    <trkpt lat="37.51818" lon="127.12849"/>
    <trkpt lat="37.51774" lon="127.12824"/>
    <trkpt lat="37.51701" lon="127.12774"/>
    <trkpt lat="37.51684" lon="127.12751"/>
    <trkpt lat="37.51652" lon="127.12716"/>
    <trkpt lat="37.51631" lon="127.12688"/>
    <trkpt lat="37.51619" lon="127.12663"/>
    <trkpt lat="37.51609" lon="127.12631"/>
    <trkpt lat="37.51596" lon="127.12591"/>
    <trkpt lat="37.51581" lon="127.12481"/>
    <trkpt lat="37.51577" lon="127.12445"/>
    <trkpt lat="37.51566" lon="127.12408"/>
    <trkpt lat="37.51547" lon="127.12364"/>
    <trkpt lat="37.51530" lon="127.12337"/>
    <trkpt lat="37.51572" lon="127.12338"/>
    <trkpt lat="37.51592" lon="127.12318"/>
    <trkpt lat="37.51617" lon="127.12275"/>
    <trkpt lat="37.51636" lon="127.12253"/>
    <trkpt lat="37.51650" lon="127.12245"/>
    <trkpt lat="37.51672" lon="127.12241"/>
    <trkpt lat="37.51689" lon="127.12241"/>
    <trkpt lat="37.51706" lon="127.12243"/>
    <trkpt lat="37.51722" lon="127.12248"/>
    <trkpt lat="37.51736" lon="127.12255"/>
    <trkpt lat="37.51749" lon="127.12262"/>
    <trkpt lat="37.51761" lon="127.12268"/>
    <trkpt lat="37.51770" lon="127.12252"/>
    <trkpt lat="37.51783" lon="127.12243"/>
    <trkpt lat="37.51776" lon="127.12228"/>
    <trkpt lat="37.51770" lon="127.12213"/>
    <trkpt lat="37.51758" lon="127.12201"/>
    <trkpt lat="37.51749" lon="127.12184"/>
    <trkpt lat="37.51733" lon="127.12181"/>
    <trkpt lat="37.51718" lon="127.12172"/>
    <trkpt lat="37.51704" lon="127.12165"/>
    <trkpt lat="37.51712" lon="127.12148"/>
    <trkpt lat="37.51714" lon="127.12127"/>
    <trkpt lat="37.51685" lon="127.12095"/>
    <trkpt lat="37.51672" lon="127.12077"/>
    <trkpt lat="37.51677" lon="127.12058"/>
    <trkpt lat="37.51662" lon="127.12039"/>
    <trkpt lat="37.51655" lon="127.12021"/>
    <trkpt lat="37.51651" lon="127.11999"/>
    <trkpt lat="37.51650" lon="127.11977"/>
    <trkpt lat="37.51651" lon="127.11959"/>
    <trkpt lat="37.51640" lon="127.11942"/>
    <trkpt lat="37.51634" lon="127.11926"/>
    <trkpt lat="37.51634" lon="127.11901"/>
    <trkpt lat="37.51632" lon="127.11881"/>
    <trkpt lat="37.51586" lon="127.11851"/>
    <trkpt lat="37.51573" lon="127.11845"/>
    <trkpt lat="37.51644" lon="127.11649"/>
    <trkpt lat="37.51654" lon="127.11621"/>
    <trkpt lat="37.51661" lon="127.11601"/>
    <trkpt lat="37.51690" lon="127.11625"/>
    <trkpt lat="37.51736" lon="127.11649"/>
    <trkpt lat="37.51812" lon="127.11617"/>
    <trkpt lat="37.51848" lon="127.11599"/>
    <trkpt lat="37.51877" lon="127.11587"/>
    <trkpt lat="37.51857" lon="127.11517"/>
    <trkpt lat="37.51895" lon="127.11500"/>
    <trkpt lat="37.51936" lon="127.11481"/>
    <trkpt lat="37.51949" lon="127.11476"/>
  </trkseg></trk>
</gpx>
