<?xml version="1.0" encoding="UTF-8"?>
<!-- 여의도 한강공원 북측 강변 약 2km — 코스 탭 데모용 샘플 (계획서 M12-3) -->
<gpx version="1.1" creator="RunWrap" xmlns="http://www.topografix.com/GPX/1/1">
  <trk><name>여의도 한강공원 샘플 코스</name><trkseg>
    <trkpt lat="37.53440" lon="126.91270"/>
    <trkpt lat="37.53437" lon="126.91318"/>
    <trkpt lat="37.53433" lon="126.91367"/>
    <trkpt lat="37.53430" lon="126.91415"/>
    <trkpt lat="37.53427" lon="126.91463"/>
    <trkpt lat="37.53423" lon="126.91512"/>
    <trkpt lat="37.53420" lon="126.91560"/>
    <trkpt lat="37.53417" lon="126.91603"/>
    <trkpt lat="37.53414" lon="126.91646"/>
    <trkpt lat="37.53411" lon="126.91689"/>
    <trkpt lat="37.53409" lon="126.91731"/>
    <trkpt lat="37.53406" lon="126.91774"/>
    <trkpt lat="37.53403" lon="126.91817"/>
    <trkpt lat="37.53400" lon="126.91860"/>
    <trkpt lat="37.53388" lon="126.91900"/>
    <trkpt lat="37.53377" lon="126.91940"/>
    <trkpt lat="37.53365" lon="126.91980"/>
    <trkpt lat="37.53353" lon="126.92020"/>
    <trkpt lat="37.53342" lon="126.92060"/>
    <trkpt lat="37.53330" lon="126.92100"/>
    <trkpt lat="37.53325" lon="126.92148"/>
    <trkpt lat="37.53320" lon="126.92195"/>
    <trkpt lat="37.53315" lon="126.92243"/>
    <trkpt lat="37.53310" lon="126.92290"/>
    <trkpt lat="37.53298" lon="126.92334"/>
    <trkpt lat="37.53285" lon="126.92378"/>
    <trkpt lat="37.53272" lon="126.92421"/>
    <trkpt lat="37.53260" lon="126.92465"/>
    <trkpt lat="37.53247" lon="126.92509"/>
    <trkpt lat="37.53235" lon="126.92552"/>
    <trkpt lat="37.53222" lon="126.92596"/>
    <trkpt lat="37.53210" lon="126.92640"/>
    <trkpt lat="37.53182" lon="126.92666"/>
    <trkpt lat="37.53154" lon="126.92692"/>
    <trkpt lat="37.53126" lon="126.92718"/>
    <trkpt lat="37.53098" lon="126.92744"/>
    <trkpt lat="37.53070" lon="126.92770"/>
    <trkpt lat="37.53068" lon="126.92812"/>
    <trkpt lat="37.53066" lon="126.92854"/>
    <trkpt lat="37.53064" lon="126.92896"/>
    <trkpt lat="37.53062" lon="126.92938"/>
    <trkpt lat="37.53060" lon="126.92980"/>
    <trkpt lat="37.53038" lon="126.93014"/>
    <trkpt lat="37.53016" lon="126.93048"/>
    <trkpt lat="37.52994" lon="126.93082"/>
    <trkpt lat="37.52972" lon="126.93116"/>
    <trkpt lat="37.52950" lon="126.93150"/>
    <trkpt lat="37.52940" lon="126.93205"/>
    <trkpt lat="37.52930" lon="126.93260"/>
  </trkseg></trk>
</gpx>
