<?xml version="1.0" encoding="UTF-8"?>
<!-- 석촌호수 한 바퀴 — 동호·서호를 함께 도는 순환 코스. 경로는 OpenStreetMap 보행로 기반(ODbL) 자체 제작 -->
<gpx version="1.1" creator="RunWrap" xmlns="http://www.topografix.com/GPX/1/1">
  <trk><name>석촌호수 한 바퀴</name><trkseg>
    <trkpt lat="37.50968" lon="127.10452"/>
    <trkpt lat="37.50986" lon="127.10483"/>
    <trkpt lat="37.50996" lon="127.10500"/>
    <trkpt lat="37.51010" lon="127.10523"/>
    <trkpt lat="37.51023" lon="127.10543"/>
    <trkpt lat="37.51059" lon="127.10592"/>
    <trkpt lat="37.51116" lon="127.10662"/>
    <trkpt lat="37.51184" lon="127.10725"/>
    <trkpt lat="37.51213" lon="127.10738"/>
    <trkpt lat="37.51232" lon="127.10742"/>
    <trkpt lat="37.51252" lon="127.10740"/>
    <trkpt lat="37.51271" lon="127.10734"/>
    <trkpt lat="37.51286" lon="127.10726"/>
    <trkpt lat="37.51301" lon="127.10710"/>
    <trkpt lat="37.51306" lon="127.10693"/>
    <trkpt lat="37.51307" lon="127.10668"/>
    <trkpt lat="37.51301" lon="127.10651"/>
    <trkpt lat="37.51272" lon="127.10592"/>
    <trkpt lat="37.51251" lon="127.10560"/>
    <trkpt lat="37.51216" lon="127.10509"/>
    <trkpt lat="37.51206" lon="127.10491"/>
    <trkpt lat="37.51192" lon="127.10466"/>
    <trkpt lat="37.51182" lon="127.10443"/>
    <trkpt lat="37.51173" lon="127.10420"/>
    <trkpt lat="37.51164" lon="127.10389"/>
    <trkpt lat="37.51159" lon="127.10369"/>
    <trkpt lat="37.51152" lon="127.10345"/>
    <trkpt lat="37.51143" lon="127.10315"/>
    <trkpt lat="37.51128" lon="127.10295"/>
    <trkpt lat="37.51107" lon="127.10283"/>
    <trkpt lat="37.51090" lon="127.10286"/>
    <trkpt lat="37.51064" lon="127.10289"/>
    <trkpt lat="37.51031" lon="127.10312"/>
    <trkpt lat="37.51015" lon="127.10310"/>
    <trkpt lat="37.50979" lon="127.10247"/>
    <trkpt lat="37.50991" lon="127.10236"/>
    <trkpt lat="37.51018" lon="127.10211"/>
    <trkpt lat="37.51029" lon="127.10192"/>
    <trkpt lat="37.51032" lon="127.10170"/>
    <trkpt lat="37.51031" lon="127.10149"/>
    <trkpt lat="37.51020" lon="127.10120"/>
    <trkpt lat="37.51016" lon="127.10101"/>
    <trkpt lat="37.51000" lon="127.10045"/>
    <trkpt lat="37.50979" lon="127.09995"/>
    <trkpt lat="37.50966" lon="127.09953"/>
    <trkpt lat="37.50942" lon="127.09911"/>
    <trkpt lat="37.50934" lon="127.09892"/>
    <trkpt lat="37.50910" lon="127.09852"/>
    <trkpt lat="37.50901" lon="127.09836"/>
    <trkpt lat="37.50883" lon="127.09816"/>
    <trkpt lat="37.50865" lon="127.09804"/>
    <trkpt lat="37.50839" lon="127.09796"/>
    <trkpt lat="37.50807" lon="127.09793"/>
    <trkpt lat="37.50789" lon="127.09792"/>
    <trkpt lat="37.50771" lon="127.09792"/>
    <trkpt lat="37.50743" lon="127.09787"/>
    <trkpt lat="37.50729" lon="127.09790"/>
    <trkpt lat="37.50718" lon="127.09801"/>
    <trkpt lat="37.50710" lon="127.09817"/>
    <trkpt lat="37.50706" lon="127.09838"/>
    <trkpt lat="37.50703" lon="127.09871"/>
    <trkpt lat="37.50703" lon="127.09897"/>
    <trkpt lat="37.50706" lon="127.09936"/>
    <trkpt lat="37.50710" lon="127.09972"/>
    <trkpt lat="37.50723" lon="127.10013"/>
    <trkpt lat="37.50738" lon="127.10053"/>
    <trkpt lat="37.50750" lon="127.10082"/>
    <trkpt lat="37.50757" lon="127.10100"/>
    <trkpt lat="37.50774" lon="127.10144"/>
    <trkpt lat="37.50796" lon="127.10182"/>
    <trkpt lat="37.50822" lon="127.10225"/>
    <trkpt lat="37.50847" lon="127.10268"/>
    <trkpt lat="37.50859" lon="127.10286"/>
    <trkpt lat="37.50880" lon="127.10297"/>
    <trkpt lat="37.50902" lon="127.10298"/>
    <trkpt lat="37.50923" lon="127.10291"/>
    <trkpt lat="37.50941" lon="127.10281"/>
    <trkpt lat="37.50959" lon="127.10265"/>
    <trkpt lat="37.50995" lon="127.10329"/>
    <trkpt lat="37.50987" lon="127.10356"/>
    <trkpt lat="37.50964" lon="127.10375"/>
    <trkpt lat="37.50954" lon="127.10396"/>
    <trkpt lat="37.50957" lon="127.10432"/>
    <trkpt lat="37.50968" lon="127.10452"/>
  </trkseg></trk>
</gpx>
