<?xml version="1.0" encoding="UTF-8"?>
<!-- 여의도 한 바퀴 — 여의나루역에서 시작해 한강·샛강·국회 뒤 강변을 따라 여의도 둘레를 도는 순환 코스. 경로는 OpenStreetMap 보행로 기반(ODbL) 자체 제작 -->
<gpx version="1.1" creator="RunWrap" xmlns="http://www.topografix.com/GPX/1/1">
  <trk><name>여의도 한 바퀴</name><trkseg>
    <trkpt lat="37.52864" lon="126.93299"/>
    <trkpt lat="37.52881" lon="126.93323"/>
    <trkpt lat="37.52854" lon="126.93361"/>
    <trkpt lat="37.52816" lon="126.93405"/>
    <trkpt lat="37.52806" lon="126.93391"/>
    <trkpt lat="37.52782" lon="126.93414"/>
    <trkpt lat="37.52770" lon="126.93430"/>
    <trkpt lat="37.52737" lon="126.93480"/>
    <trkpt lat="37.52716" lon="126.93507"/>
    <trkpt lat="37.52702" lon="126.93527"/>
    <trkpt lat="37.52694" lon="126.93542"/>
    <trkpt lat="37.52679" lon="126.93564"/>
    <trkpt lat="37.52662" lon="126.93585"/>
    <trkpt lat="37.52645" lon="126.93604"/>
    <trkpt lat="37.52628" lon="126.93623"/>
    <trkpt lat="37.52609" lon="126.93641"/>
    <trkpt lat="37.52591" lon="126.93656"/>
    <trkpt lat="37.52578" lon="126.93669"/>
    <trkpt lat="37.52569" lon="126.93704"/>
    <trkpt lat="37.52565" lon="126.93723"/>
    <trkpt lat="37.52553" lon="126.93761"/>
    <trkpt lat="37.52543" lon="126.93773"/>
    <trkpt lat="37.52531" lon="126.93790"/>
    <trkpt lat="37.52517" lon="126.93774"/>
    <trkpt lat="37.52497" lon="126.93799"/>
    <trkpt lat="37.52486" lon="126.93809"/>
    <trkpt lat="37.52462" lon="126.93833"/>
    <trkpt lat="37.52440" lon="126.93864"/>
    <trkpt lat="37.52428" lon="126.93880"/>
    <trkpt lat="37.52418" lon="126.93892"/>
    <trkpt lat="37.52407" lon="126.93903"/>
    <trkpt lat="37.52393" lon="126.93913"/>
    <trkpt lat="37.52349" lon="126.93932"/>
    <trkpt lat="37.52336" lon="126.93954"/>
    <trkpt lat="37.52326" lon="126.93996"/>
    <trkpt lat="37.52310" lon="126.94024"/>
    <trkpt lat="37.52292" lon="126.94002"/>
    <trkpt lat="37.52278" lon="126.94019"/>
    <trkpt lat="37.52266" lon="126.94034"/>
    <trkpt lat="37.52254" lon="126.94048"/>
    <trkpt lat="37.52241" lon="126.94060"/>
    <trkpt lat="37.52226" lon="126.94070"/>
    <trkpt lat="37.52204" lon="126.94080"/>
    <trkpt lat="37.52179" lon="126.94088"/>
    <trkpt lat="37.52145" lon="126.94042"/>
    <trkpt lat="37.52136" lon="126.94056"/>
    <trkpt lat="37.52125" lon="126.94068"/>
    <trkpt lat="37.52099" lon="126.94088"/>
    <trkpt lat="37.52085" lon="126.94099"/>
    <trkpt lat="37.52062" lon="126.94119"/>
    <trkpt lat="37.52044" lon="126.94129"/>
    <trkpt lat="37.52030" lon="126.94135"/>
    <trkpt lat="37.52013" lon="126.94139"/>
    <trkpt lat="37.51991" lon="126.94140"/>
    <trkpt lat="37.51971" lon="126.94140"/>
    <trkpt lat="37.51951" lon="126.94140"/>
    <trkpt lat="37.51934" lon="126.94142"/>
    <trkpt lat="37.51908" lon="126.94145"/>
    <trkpt lat="37.51880" lon="126.94147"/>
    <trkpt lat="37.51860" lon="126.94148"/>
    <trkpt lat="37.51839" lon="126.94152"/>
    <trkpt lat="37.51821" lon="126.94158"/>
    <trkpt lat="37.51799" lon="126.94170"/>
    <trkpt lat="37.51775" lon="126.94187"/>
    <trkpt lat="37.51765" lon="126.94202"/>
    <trkpt lat="37.51760" lon="126.94220"/>
    <trkpt lat="37.51765" lon="126.94249"/>
    <trkpt lat="37.51780" lon="126.94233"/>
    <trkpt lat="37.51782" lon="126.94212"/>
    <trkpt lat="37.51779" lon="126.94190"/>
    <trkpt lat="37.51763" lon="126.94150"/>
    <trkpt lat="37.51756" lon="126.94128"/>
    <trkpt lat="37.51751" lon="126.94107"/>
    <trkpt lat="37.51735" lon="126.94021"/>
    <trkpt lat="37.51727" lon="126.93995"/>
    <trkpt lat="37.51723" lon="126.93977"/>
    <trkpt lat="37.51718" lon="126.93928"/>
    <trkpt lat="37.51713" lon="126.93911"/>
    <trkpt lat="37.51703" lon="126.93875"/>
    <trkpt lat="37.51693" lon="126.93857"/>
    <trkpt lat="37.51682" lon="126.93832"/>
    <trkpt lat="37.51656" lon="126.93725"/>
    <trkpt lat="37.51629" lon="126.93601"/>
    <trkpt lat="37.51564" lon="126.93254"/>
    <trkpt lat="37.51552" lon="126.93098"/>
    <trkpt lat="37.51547" lon="126.92930"/>
    <trkpt lat="37.51556" lon="126.92817"/>
    <trkpt lat="37.51564" lon="126.92753"/>
    <trkpt lat="37.51571" lon="126.92704"/>
    <trkpt lat="37.51591" lon="126.92586"/>
    <trkpt lat="37.51628" lon="126.92440"/>
    <trkpt lat="37.51650" lon="126.92373"/>
    <trkpt lat="37.51671" lon="126.92318"/>
    <trkpt lat="37.51804" lon="126.91965"/>
    <trkpt lat="37.51839" lon="126.91875"/>
    <trkpt lat="37.51882" lon="126.91793"/>
    <trkpt lat="37.51942" lon="126.91700"/>
    <trkpt lat="37.51986" lon="126.91647"/>
    <trkpt lat="37.52027" lon="126.91612"/>
    <trkpt lat="37.52099" lon="126.91556"/>
    <trkpt lat="37.52138" lon="126.91525"/>
    <trkpt lat="37.52661" lon="126.91163"/>
    <trkpt lat="37.52695" lon="126.91148"/>
    <trkpt lat="37.52724" lon="126.91138"/>
    <trkpt lat="37.52758" lon="126.91130"/>
    <trkpt lat="37.52828" lon="126.91104"/>
    <trkpt lat="37.52898" lon="126.91080"/>
    <trkpt lat="37.52936" lon="126.91072"/>
    <trkpt lat="37.53007" lon="126.91059"/>
    <trkpt lat="37.53076" lon="126.91056"/>
    <trkpt lat="37.53093" lon="126.91052"/>
    <trkpt lat="37.53162" lon="126.91024"/>
    <trkpt lat="37.53177" lon="126.91024"/>
    <trkpt lat="37.53191" lon="126.91021"/>
    <trkpt lat="37.53219" lon="126.91003"/>
    <trkpt lat="37.53245" lon="126.90991"/>
    <trkpt lat="37.53276" lon="126.90981"/>
    <trkpt lat="37.53296" lon="126.90977"/>
    <trkpt lat="37.53315" lon="126.90979"/>
    <trkpt lat="37.53343" lon="126.90984"/>
    <trkpt lat="37.53359" lon="126.90972"/>
    <trkpt lat="37.53365" lon="126.90931"/>
    <trkpt lat="37.53372" lon="126.90914"/>
    <trkpt lat="37.53354" lon="126.90921"/>
    <trkpt lat="37.53347" lon="126.90938"/>
    <trkpt lat="37.53339" lon="126.90975"/>
    <trkpt lat="37.53333" lon="126.91022"/>
    <trkpt lat="37.53329" lon="126.91052"/>
    <trkpt lat="37.53329" lon="126.91070"/>
    <trkpt lat="37.53337" lon="126.91097"/>
    <trkpt lat="37.53350" lon="126.91112"/>
    <trkpt lat="37.53374" lon="126.91136"/>
    <trkpt lat="37.53394" lon="126.91166"/>
    <trkpt lat="37.53408" lon="126.91138"/>
    <trkpt lat="37.53408" lon="126.91108"/>
    <trkpt lat="37.53403" lon="126.91071"/>
    <trkpt lat="37.53390" lon="126.91042"/>
    <trkpt lat="37.53384" lon="126.91017"/>
    <trkpt lat="37.53458" lon="126.91017"/>
    <trkpt lat="37.53458" lon="126.91095"/>
    <trkpt lat="37.53443" lon="126.91127"/>
    <trkpt lat="37.53429" lon="126.91129"/>
    <trkpt lat="37.53434" lon="126.91166"/>
    <trkpt lat="37.53437" lon="126.91190"/>
    <trkpt lat="37.53437" lon="126.91210"/>
    <trkpt lat="37.53409" lon="126.91227"/>
    <trkpt lat="37.53396" lon="126.91235"/>
    <trkpt lat="37.53385" lon="126.91220"/>
    <trkpt lat="37.53359" lon="126.91191"/>
    <trkpt lat="37.53339" lon="126.91170"/>
    <trkpt lat="37.53324" lon="126.91162"/>
    <trkpt lat="37.53300" lon="126.91147"/>
    <trkpt lat="37.53286" lon="126.91141"/>
    <trkpt lat="37.53260" lon="126.91136"/>
    <trkpt lat="37.53246" lon="126.91136"/>
    <trkpt lat="37.53228" lon="126.91139"/>
    <trkpt lat="37.53211" lon="126.91144"/>
    <trkpt lat="37.53182" lon="126.91156"/>
    <trkpt lat="37.53212" lon="126.91147"/>
    <trkpt lat="37.53245" lon="126.91140"/>
    <trkpt lat="37.53260" lon="126.91139"/>
    <trkpt lat="37.53275" lon="126.91142"/>
    <trkpt lat="37.53306" lon="126.91154"/>
    <trkpt lat="37.53322" lon="126.91163"/>
    <trkpt lat="37.53348" lon="126.91191"/>
    <trkpt lat="37.53357" lon="126.91205"/>
    <trkpt lat="37.53365" lon="126.91228"/>
    <trkpt lat="37.53369" lon="126.91258"/>
    <trkpt lat="37.53369" lon="126.91281"/>
    <trkpt lat="37.53358" lon="126.91424"/>
    <trkpt lat="37.53356" lon="126.91445"/>
    <trkpt lat="37.53344" lon="126.91589"/>
    <trkpt lat="37.53328" lon="126.91698"/>
    <trkpt lat="37.53306" lon="126.91766"/>
    <trkpt lat="37.53297" lon="126.91809"/>
    <trkpt lat="37.53295" lon="126.91845"/>
    <trkpt lat="37.53278" lon="126.91907"/>
    <trkpt lat="37.53252" lon="126.91996"/>
    <trkpt lat="37.53239" lon="126.92046"/>
    <trkpt lat="37.53223" lon="126.92104"/>
    <trkpt lat="37.53218" lon="126.92125"/>
    <trkpt lat="37.53218" lon="126.92143"/>
    <trkpt lat="37.53225" lon="126.92162"/>
    <trkpt lat="37.53238" lon="126.92177"/>
    <trkpt lat="37.53263" lon="126.92166"/>
    <trkpt lat="37.53270" lon="126.92183"/>
    <trkpt lat="37.53261" lon="126.92212"/>
    <trkpt lat="37.53252" lon="126.92228"/>
    <trkpt lat="37.53318" lon="126.92272"/>
    <trkpt lat="37.53330" lon="126.92279"/>
    <trkpt lat="37.53351" lon="126.92237"/>
    <trkpt lat="37.53379" lon="126.92256"/>
    <trkpt lat="37.53393" lon="126.92266"/>
    <trkpt lat="37.53379" lon="126.92319"/>
    <trkpt lat="37.53369" lon="126.92356"/>
    <trkpt lat="37.53361" lon="126.92384"/>
    <trkpt lat="37.53352" lon="126.92414"/>
    <trkpt lat="37.53344" lon="126.92440"/>
    <trkpt lat="37.53336" lon="126.92468"/>
    <trkpt lat="37.53314" lon="126.92535"/>
    <trkpt lat="37.53294" lon="126.92539"/>
    <trkpt lat="37.53258" lon="126.92645"/>
    <trkpt lat="37.53224" lon="126.92593"/>
    <trkpt lat="37.53234" lon="126.92630"/>
    <trkpt lat="37.53146" lon="126.92830"/>
    <trkpt lat="37.53130" lon="126.92867"/>
    <trkpt lat="37.53114" lon="126.92904"/>
    <trkpt lat="37.53100" lon="126.92934"/>
    <trkpt lat="37.53075" lon="126.92983"/>
    <trkpt lat="37.53057" lon="126.93017"/>
    <trkpt lat="37.53032" lon="126.93051"/>
    <trkpt lat="37.52991" lon="126.93097"/>
    <trkpt lat="37.53005" lon="126.93129"/>
    <trkpt lat="37.53010" lon="126.93146"/>
    <trkpt lat="37.52996" lon="126.93169"/>
    <trkpt lat="37.52973" lon="126.93203"/>
    <trkpt lat="37.52957" lon="126.93226"/>
    <trkpt lat="37.52947" lon="126.93240"/>
    <trkpt lat="37.52918" lon="126.93280"/>
    <trkpt lat="37.52886" lon="126.93319"/>
    <trkpt lat="37.52864" lon="126.93299"/>
  </trkseg></trk>
</gpx>
